GLOBALSTAR M024         
1 25883U 99043A   25301.35913546 -.00000073  00000+0 -27749-3 0  9991
2 25883  52.0014  80.1346 0000668 354.1390  43.8036 11.10170788129658
GLOBALSTAR M027         
1 25884U 99043B   25301.63977661 -.00000093  00000+0 -10994-2 0  9996
2 25884  52.0181 161.2696 0020707 204.7900 155.1900 11.04372793155981
GLOBALSTAR M054         
1 25885U 99043C   25301.24197728 -.00000013  00000+0  14977-2 0  9998
2 25885  52.0133 267.1261 0005620  44.3469  60.7508 11.39221821134219
GLOBALSTAR M053         
1 25886U 99043D   25301.50523697 -.00000044  00000+0  71999-3 0  9998
2 25886  51.9974 220.9867 0003344 324.5690 206.1846 11.27667956134480
GLOBALSTAR M058         
1 25907U 99049A   25301.41995892 -.00000070  00000+0  19414-3 0  9991
2 25907  51.9911 113.4046 0002421 147.5136 212.5848 11.93203553557443
GLOBALSTAR M050         
1 25908U 99049B   25301.18585718 -.00000122  00000+0 -38184-3 0  9992
2 25908  51.9964 111.7694 0008098 299.5898 232.4359 12.07460383164254
GLOBALSTAR M033         
1 25909U 99049C   25301.53449751 -.00000162  00000+0 -67312-3 0  9997
2 25909  51.9933 333.4356 0013953 178.5049 181.5842 12.20292643552023
GLOBALSTAR M055         
1 25910U 99049D   25301.50800950 -.00000062  00000+0  27427-3 0  9999
2 25910  52.0037 337.7672 0007138  50.4872 309.6610 12.29434520184680
